OBJECT_NAME,OBJECT_ID,EPOCH,MEAN_MOTION,ECCENTRICITY,INCLINATION,RA_OF_ASC_NODE,ARG_OF_PERICENTER,MEAN_ANOMALY,EPHEMERIS_TYPE,CLASSIFICATION_TYPE,NORAD_CAT_ID,ELEMENT_SET_NO,REV_AT_EPOCH,BSTAR,MEAN_MOTION_DOT,MEAN_MOTION_DDOT
H-2A R/B,2006-002B,2026-06-17T12:22:57.330048,15.18063600,.0049597,98.2567,324.3741,261.1521,98.4093,0,U,28932,999,10957,.28042E-3,.5813E-4,0
RESURS-DK 1,2006-021A,2026-06-17T21:28:22.281312,15.13220954,.00068814,69.9330,337.7217,291.3042,68.7389,0,U,29228,999,10268,.10743511E-3,.1805E-4,0
CZ-4B R/B,2006-046C,2026-06-17T15:33:43.335072,15.17786742,.00309956,97.5449,213.2542,281.0330,78.7418,0,U,29507,999,7520,.15195692E-3,.3037E-4,0
CZ-2C R/B,2007-010B,2026-06-17T20:02:11.783904,14.20276309,.00589811,98.4100,277.1540,4.2490,355.9176,0,U,31114,999,99393,.49844388E-4,.67E-6,0
COSMO-SKYMED 1,2007-023A,2026-06-17T22:29:21.670368,14.97102534,.00013508,97.8848,0.7989,98.3614,261.7760,0,U,31598,999,2990,.19951793E-3,.2242E-4,0
COSMOS 2428,2007-029A,2026-06-17T22:08:19.092480,14.12928047,.00071234,70.9369,352.9338,133.5634,226.6080,0,U,31792,999,97825,-.3160549E-4,-.107E-5,0
SL-16 R/B,2007-029B,2026-06-17T21:32:44.681568,14.14855304,.00023416,70.9769,321.7341,261.7876,213.2383,0,U,31793,999,97954,.62559287E-4,.73E-6,0
KORONAS-FOTON,2009-003A,2026-06-17T11:12:21.316896,15.45726740,.00117181,82.4284,171.9677,146.5296,213.6696,0,U,33504,999,96114,.17543679E-3,.8536E-4,0
CZ-2C R/B,2011-030B,2026-06-17T20:24:04.388256,14.81472998,.00530123,97.8655,124.2242,25.8486,27.7673,0,U,37731,999,80492,.13595882E-3,.1036E-4,0
H-2A R/B,2012-025E,2026-06-17T21:25:37.652160,14.95724294,.00435701,98.4832,144.0966,347.0252,12.9842,0,U,38341,999,76319,.20958432E-3,.2308E-4,0
SHIJIAN-16 (SJ-16),2013-057A,2026-06-17T23:26:26.653632,14.92605786,.00168162,74.9725,355.1877,228.9082,131.0655,0,U,39358,999,68646,.35678434E-4,.338E-5,0
SL-4 R/B,2014-021B,2026-06-17T13:58:33.235968,15.41962162,.00912203,51.6039,208.8354,107.4106,253.6879,0,U,39679,999,67167,.19045221E-3,.9116E-4,0
ALOS-2,2014-029A,2026-06-17T22:49:06.214368,14.79469713,.00016292,97.9226,266.1029,89.8393,270.3005,0,U,39766,999,65169,.91673956E-4,.633E-5,0
YAOGAN-29,2015-069A,2026-06-17T22:04:44.552640,14.83087374,.00026273,98.0021,197.5539,53.7656,306.3800,0,U,41038,999,57073,.86056775E-4,.647E-5,0
ASTRO-H (HITOMI),2016-012A,2026-06-17T23:01:30.256608,15.10513870,.00097962,30.9998,69.2000,261.4388,98.5141,0,U,41337,999,56740,.12094948E-3,.214E-4,0
HXMT (HUIYAN),2017-034A,2026-06-17T22:10:06.915360,15.18480457,.00306709,43.0125,178.9399,151.9278,208.3232,0,U,42758,999,49777,.10763209E-3,.2039E-4,0
SAOCOM 1A,2018-076A,2026-06-17T22:42:28.750176,14.82150155,.00015922,97.8877,355.6834,80.3216,279.8177,0,U,43641,999,41621,.10085944E-3,.751E-5,0
H-2A R/B,2018-084L,2026-06-17T21:43:42.035232,15.45177480,.00234488,98.8570,47.9519,38.2004,322.0897,0,U,43682,999,42123,.36008329E-3,.17154E-3,0
SAOCOM 1B,2020-059A,2026-06-17T23:27:20.394432,14.82146656,.00016132,97.8880,354.8090,82.3230,277.8166,0,U,46265,999,31360,.14143621E-4,.6E-6,0
CSS (TIANHE),2021-035A,2026-06-17T20:56:52.664928,15.60838541,.00074088,41.4698,317.8288,82.9062,277.2619,0,U,48274,999,29327,.24417332E-3,.2071E-3,0
COSMOS 2550,2021-056A,2026-06-17T22:29:15.459936,15.33847751,.00083421,67.1435,97.6381,268.6108,91.4090,0,U,48865,999,27883,.21058896E-3,.6747E-4,0
CZ-2C R/B,2022-058K,2026-06-16T06:46:43.306752,15.61795532,.00325428,50.1832,168.2256,264.2442,95.4821,0,U,52794,999,22550,.34419339E-3,.30822E-3,0
CZ-2C R/B,2022-132E,2026-06-17T12:49:40.994400,15.71527278,.0016079,97.2897,175.5740,83.1011,277.2081,0,U,54039,999,20600,.36887E-3,.47573E-3,0
GSLV R/B,2022-138AN,2026-06-17T20:28:14.423808,14.97260534,.00229769,87.3807,132.7608,141.3980,218.8900,0,U,54149,999,19891,.19484813E-3,.2297E-4,0
XRISM,2023-137A,2026-06-17T21:59:54.110400,15.12472233,.00079543,31.0032,354.8773,331.0868,28.9330,0,U,57800,999,15297,.2213158E-3,.4046E-4,0
ACS3,2024-077B,2026-06-17T18:42:51.268320,13.94046414,.00766184,97.1683,87.4358,63.0470,297.8496,0,U,59588,999,10812,.27551023E-1,.37503E-3,0
CZ-8A R/B,2025-231K,2026-06-17T21:22:21.135360,14.30155080,.01164897,50.0058,36.3240,226.4873,132.6316,0,U,66004,999,3504,.48758689E-4,-.27E-6,0
SZ-21 MODULE,2025-246C,2026-06-17T12:46:53.918400,15.76430582,.0006303,41.4742,305.1743,350.6233,9.4493,0,U,66515,999,3379,.2382755E-3,.38762E-3,0
